{
"type": "FeatureCollection",
"name": "tiendas_naturistas",
"crs": { "type": "name", "properties": { "name": "urn:ogc:def:crs:OGC:1.3:CRS84" } },
"features": [
{ "type": "Feature", "properties": { "full_id": "n12533026045", "osm_id": "12533026045", "osm_type": "node", "shop": "health_food", "addr:unit": "1", "addr:housename": null, "addr:country": null, "payment:visa": null, "payment:mastercard": null, "payment:debit_cards": null, "payment:coins": null, "payment:cards": null, "payment:phone_app": null, "outdoor_seating": null, "internet_access": null, "delivery": null, "cuisine": null, "air_conditioning": null, "phone": null, "opening_hours": null, "addr:postcode": null, "website": null, "payment:credit_cards": null, "payment:cash": null, "diet:vegetarian": null, "name": "Mr. Keto", "addr:street": "Avenida Irarrázaval", "addr:housenumber": "3258", "addr:city": "Ñuñoa" }, "geometry": { "type": "Point", "coordinates": [ -70.596918, -33.4547936 ] } },
{ "type": "Feature", "properties": { "full_id": "n10846714730", "osm_id": "10846714730", "osm_type": "node", "shop": "health_food", "addr:unit": null, "addr:housename": null, "addr:country": null, "payment:visa": null, "payment:mastercard": null, "payment:debit_cards": null, "payment:coins": null, "payment:cards": null, "payment:phone_app": null, "outdoor_seating": null, "internet_access": null, "delivery": null, "cuisine": null, "air_conditioning": null, "phone": null, "opening_hours": null, "addr:postcode": null, "website": null, "payment:credit_cards": null, "payment:cash": null, "diet:vegetarian": null, "name": "Fork", "addr:street": null, "addr:housenumber": null, "addr:city": null }, "geometry": { "type": "Point", "coordinates": [ -70.6285361, -33.4522047 ] } },
{ "type": "Feature", "properties": { "full_id": "n10916893314", "osm_id": "10916893314", "osm_type": "node", "shop": "health_food", "addr:unit": null, "addr:housename": null, "addr:country": null, "payment:visa": null, "payment:mastercard": null, "payment:debit_cards": null, "payment:coins": null, "payment:cards": null, "payment:phone_app": null, "outdoor_seating": null, "internet_access": null, "delivery": null, "cuisine": null, "air_conditioning": null, "phone": null, "opening_hours": null, "addr:postcode": null, "website": null, "payment:credit_cards": null, "payment:cash": null, "diet:vegetarian": null, "name": "Machete Vegan", "addr:street": "Avenida Libertador Bernardo O'Higgins", "addr:housenumber": null, "addr:city": "Santiago" }, "geometry": { "type": "Point", "coordinates": [ -70.6412403, -33.4401311 ] } },
{ "type": "Feature", "properties": { "full_id": "n11079558473", "osm_id": "11079558473", "osm_type": "node", "shop": "health_food", "addr:unit": null, "addr:housename": null, "addr:country": null, "payment:visa": null, "payment:mastercard": null, "payment:debit_cards": null, "payment:coins": null, "payment:cards": null, "payment:phone_app": null, "outdoor_seating": null, "internet_access": null, "delivery": null, "cuisine": null, "air_conditioning": null, "phone": null, "opening_hours": null, "addr:postcode": null, "website": null, "payment:credit_cards": null, "payment:cash": null, "diet:vegetarian": null, "name": "Vegechef", "addr:street": null, "addr:housenumber": null, "addr:city": null }, "geometry": { "type": "Point", "coordinates": [ -70.6648761, -33.4566363 ] } },
{ "type": "Feature", "properties": { "full_id": "n10695770200", "osm_id": "10695770200", "osm_type": "node", "shop": "health_food", "addr:unit": null, "addr:housename": null, "addr:country": null, "payment:visa": null, "payment:mastercard": null, "payment:debit_cards": null, "payment:coins": null, "payment:cards": null, "payment:phone_app": null, "outdoor_seating": null, "internet_access": null, "delivery": null, "cuisine": null, "air_conditioning": null, "phone": null, "opening_hours": null, "addr:postcode": null, "website": null, "payment:credit_cards": null, "payment:cash": null, "diet:vegetarian": null, "name": "Fork", "addr:street": null, "addr:housenumber": null, "addr:city": null }, "geometry": { "type": "Point", "coordinates": [ -70.6365881, -33.4447319 ] } },
{ "type": "Feature", "properties": { "full_id": "n10772190167", "osm_id": "10772190167", "osm_type": "node", "shop": "health_food", "addr:unit": null, "addr:housename": null, "addr:country": null, "payment:visa": null, "payment:mastercard": null, "payment:debit_cards": null, "payment:coins": null, "payment:cards": null, "payment:phone_app": null, "outdoor_seating": null, "internet_access": null, "delivery": null, "cuisine": null, "air_conditioning": null, "phone": null, "opening_hours": null, "addr:postcode": null, "website": null, "payment:credit_cards": null, "payment:cash": null, "diet:vegetarian": null, "name": "Fork", "addr:street": null, "addr:housenumber": null, "addr:city": null }, "geometry": { "type": "Point", "coordinates": [ -70.6000356, -33.416899 ] } },
{ "type": "Feature", "properties": { "full_id": "n10028565033", "osm_id": "10028565033", "osm_type": "node", "shop": "health_food", "addr:unit": null, "addr:housename": null, "addr:country": null, "payment:visa": null, "payment:mastercard": null, "payment:debit_cards": null, "payment:coins": null, "payment:cards": null, "payment:phone_app": null, "outdoor_seating": null, "internet_access": null, "delivery": null, "cuisine": null, "air_conditioning": null, "phone": null, "opening_hours": null, "addr:postcode": null, "website": "https://www.forkchile.cl/", "payment:credit_cards": null, "payment:cash": null, "diet:vegetarian": null, "name": "Fork", "addr:street": "Avenida Francisco Bilbao", "addr:housenumber": "2429", "addr:city": "Providencia" }, "geometry": { "type": "Point", "coordinates": [ -70.600226, -33.4370026 ] } },
{ "type": "Feature", "properties": { "full_id": "n10276977921", "osm_id": "10276977921", "osm_type": "node", "shop": "health_food", "addr:unit": null, "addr:housename": null, "addr:country": null, "payment:visa": null, "payment:mastercard": null, "payment:debit_cards": null, "payment:coins": null, "payment:cards": null, "payment:phone_app": null, "outdoor_seating": null, "internet_access": null, "delivery": null, "cuisine": null, "air_conditioning": null, "phone": null, "opening_hours": null, "addr:postcode": null, "website": null, "payment:credit_cards": null, "payment:cash": null, "diet:vegetarian": null, "name": "La Hueveria", "addr:street": "Avenida Holanda", "addr:housenumber": "061", "addr:city": "Providencia" }, "geometry": { "type": "Point", "coordinates": [ -70.6044479, -33.4185406 ] } },
{ "type": "Feature", "properties": { "full_id": "n5424779161", "osm_id": "5424779161", "osm_type": "node", "shop": "health_food", "addr:unit": null, "addr:housename": null, "addr:country": null, "payment:visa": null, "payment:mastercard": null, "payment:debit_cards": null, "payment:coins": null, "payment:cards": null, "payment:phone_app": "yes", "outdoor_seating": "yes", "internet_access": "wlan", "delivery": "yes", "cuisine": "international", "air_conditioning": "yes", "phone": null, "opening_hours": "Mo-Su 09:00-21:00", "addr:postcode": null, "website": "https://www.forkchile.cl/", "payment:credit_cards": "yes", "payment:cash": "yes", "diet:vegetarian": null, "name": "Fork", "addr:street": "Carlos Silva Vildosola", "addr:housenumber": "1232", "addr:city": "Providencia" }, "geometry": { "type": "Point", "coordinates": [ -70.5939413, -33.4278069 ] } },
{ "type": "Feature", "properties": { "full_id": "n4424385974", "osm_id": "4424385974", "osm_type": "node", "shop": "health_food", "addr:unit": null, "addr:housename": null, "addr:country": null, "payment:visa": null, "payment:mastercard": null, "payment:debit_cards": null, "payment:coins": null, "payment:cards": null, "payment:phone_app": null, "outdoor_seating": null, "internet_access": null, "delivery": null, "cuisine": null, "air_conditioning": null, "phone": null, "opening_hours": null, "addr:postcode": null, "website": null, "payment:credit_cards": null, "payment:cash": null, "diet:vegetarian": null, "name": "Organisk", "addr:street": "Andrés de Fuenzalida", "addr:housenumber": "91", "addr:city": "Providencia" }, "geometry": { "type": "Point", "coordinates": [ -70.6113263, -33.4215314 ] } },
{ "type": "Feature", "properties": { "full_id": "n4464319353", "osm_id": "4464319353", "osm_type": "node", "shop": "health_food", "addr:unit": null, "addr:housename": null, "addr:country": null, "payment:visa": null, "payment:mastercard": null, "payment:debit_cards": null, "payment:coins": null, "payment:cards": null, "payment:phone_app": null, "outdoor_seating": null, "internet_access": null, "delivery": null, "cuisine": null, "air_conditioning": null, "phone": "+56229465527", "opening_hours": "Mo-Su 10:30-20:00", "addr:postcode": "7500599", "website": "https://plantamaestra.cl", "payment:credit_cards": null, "payment:cash": null, "diet:vegetarian": null, "name": "Planta Maestra", "addr:street": "Avenida Manuel Montt", "addr:housenumber": "187", "addr:city": "Providencia" }, "geometry": { "type": "Point", "coordinates": [ -70.6195095, -33.4304511 ] } },
{ "type": "Feature", "properties": { "full_id": "n4465904307", "osm_id": "4465904307", "osm_type": "node", "shop": "health_food", "addr:unit": null, "addr:housename": null, "addr:country": null, "payment:visa": null, "payment:mastercard": null, "payment:debit_cards": null, "payment:coins": null, "payment:cards": null, "payment:phone_app": null, "outdoor_seating": null, "internet_access": null, "delivery": null, "cuisine": null, "air_conditioning": null, "phone": null, "opening_hours": null, "addr:postcode": null, "website": null, "payment:credit_cards": null, "payment:cash": null, "diet:vegetarian": null, "name": "Green Natural", "addr:street": "José Manuel Infante", "addr:housenumber": null, "addr:city": "Ñuñoa" }, "geometry": { "type": "Point", "coordinates": [ -70.6178814, -33.4528614 ] } },
{ "type": "Feature", "properties": { "full_id": "n1841266856", "osm_id": "1841266856", "osm_type": "node", "shop": "health_food", "addr:unit": null, "addr:housename": null, "addr:country": null, "payment:visa": null, "payment:mastercard": null, "payment:debit_cards": null, "payment:coins": null, "payment:cards": null, "payment:phone_app": null, "outdoor_seating": null, "internet_access": null, "delivery": null, "cuisine": null, "air_conditioning": null, "phone": null, "opening_hours": null, "addr:postcode": null, "website": null, "payment:credit_cards": null, "payment:cash": null, "diet:vegetarian": null, "name": "Fork", "addr:street": "José Victorino Lastarria", "addr:housenumber": "65", "addr:city": "Santiago" }, "geometry": { "type": "Point", "coordinates": [ -70.6410761, -33.4394836 ] } },
{ "type": "Feature", "properties": { "full_id": "n2573572077", "osm_id": "2573572077", "osm_type": "node", "shop": "health_food", "addr:unit": null, "addr:housename": null, "addr:country": null, "payment:visa": null, "payment:mastercard": null, "payment:debit_cards": null, "payment:coins": null, "payment:cards": null, "payment:phone_app": null, "outdoor_seating": null, "internet_access": null, "delivery": null, "cuisine": null, "air_conditioning": null, "phone": null, "opening_hours": null, "addr:postcode": null, "website": "https://www.lachakra.cl/", "payment:credit_cards": "yes", "payment:cash": "yes", "diet:vegetarian": "only", "name": "La Chakra", "addr:street": "Mariano Sánchez Fontecilla", "addr:housenumber": "534", "addr:city": null }, "geometry": { "type": "Point", "coordinates": [ -70.596037, -33.4217625 ] } }
]
}
